# Made by eph2tle, compiled Feb  6 2024 12:03:08
# Run at Fri Feb 16 13:41:49 2024
#
#    The following TLEs (Two-Line Elements) were generated by fitting
# a numerically-integrated ephemeris,  based on the orbit given below,
# to the SDP4/SGP4 models.  Each TLE is good for the interval between
# its epoch and the epoch of the subsequent TLE (usually one day).
# The maximum deviation between the numerically integrated ephemerides
# and the TLE-based ephemeris, in kilometers,  is given for each TLE
# as the "worst residual".
#
#    This fitting is done using the 'eph2tle' code packaged with Find_Orb.
# The code has details on how the TLEs were computed :
#
#    https://github.com/Bill-Gray/find_orb/eph2tle.cpp
#
#    Be warned:  the error given is that between the numerically
# integrated ephems and the TLE model.  There will usually be at
# least some additional difference between the ephems and the actual
# motion of the satellite,  especially if the ephemerides are based
# on a short arc.  If the following orbital elements say something
# like "[based on] 10 observations 2015 Jan. 1-13",  and the TLEs
# are for 2015 May,  the extrapolation may be tenuous at best.  If
# your application requires a specific level of accuracy,  you may
# want to contact me;  I can give you some idea as to the fit of the
# underlying data (and possibly TLEs based on newer data).
#
#   You can usually find the underlying observational data,  and the
# fitted orbit,  residuals,  ephemerides,  and sometimes some comments
# about the object,  among the pages listed at
#
#    https://www.projectpluto.com/pluto/mpecs/pseudo.htm
#
#    WARNING:  for this object,  "normal" TLEs cannot be fitted.  (This
# usually means an object with an hyperbolic or nearly-parabolic orbit.)
# For this and similar cases,   an alternative model is used,  in which
# most of the traditional TLE data is replaced by six signed 8-digit hex
# numbers.  These six numbers are a state vector,  numerically integrated
# using a simplified force model.  This is necessary for objects at L2 or
# L1,  and sometimes for objects in high orbits where the SDP4/SGP4 model
# fails.  Some documentation is in 'get_el.cpp' in the source code at
# https://www.github.com/Bill-Gray/sat_code ; look for 'hex' in that file,
# with the actual integration done in 'sdp4.cpp'.  But be aware:  it's my
# own extension,  doesn't work with other code,  and is therefore used
# only when necessary.
#
#    Also,  if you use a TLE outside the "correct" time range (between
# its MJD and that of the next TLE),  all bets are off.  I've carefully
# computed and minimized the worst error over the "correct" time frame,
# but the ephemeris may (or may not) diverge wildly outside of it.
#
# Ephem range: 60355.500000 60401.500000 1.000000
# Created Fri Feb 16 13:41:39 2024
# Ephemeris start: 15 Feb 2024 12:00:00
# Ephemeris end:    1 Apr 2024 12:00:00
# Times are all TDT
# Positions/velocities are in ecliptic J2000
# Orbital elements:  2024-030B = NORAD 58964 = Falcon 9-300 Stage 2
#    Perigee 2024 Feb 15.2838597 +/- 2.42e-5 TT =  6:48:45.48 (JD 2460355.7838597)
# Epoch 2024 Feb 16.0 TT = JDT 2460356.5                           Find_Orb
# M  23.0729275777 +/- 0.0055         (J2000 equator)
# n  32.2184478445 +/- 0.00704        Peri.  239.7671657 +/- 0.0011
# a211122.13228 +/- 30.8              Node    67.8136888 +/- 0.00049
# e   0.968758407 +/- 3.72e-6         Incl.   28.6680187 +/- 0.00025
# P  11.1735d                H 26.81  G  0.15   U  9.4
# q 6595.7915644 +/- 0.352    Q 415648.47299 +/- 61.3
# 63 of 66 observations 2024 Feb. 15-16 (17.7 hr); mean residual 0".571
#
# 1 NoradU COSPAR   Epoch.epoch     dn/dt/2  d2n/dt2/6 BSTAR    T El# C
# 2 NoradU Inclina RAAscNode Eccent  ArgPeri MeanAno  MeanMotion Rev# C

# Worst residual: 0.32 km
# MJD 60355.500000 (2024 Feb 15 12:00)
2024-030B = NORAD 58964 = Falcon 9-300 Stage 2
1 58964U 24030B   24046.49919926 -0002U6ON +0017V5ZM +000AD1IXH 22385
2 58964                          -00063CGE +000F6MGX +00065TT1     02

# Worst residual: 0.62 km
# MJD 60356.500000 (2024 Feb 16 12:00)
2024-030B = NORAD 58964 = Falcon 9-300 Stage 2
1 58964U 24030B   24047.49919926 -0019A2EL +003AICGI +001AYM7BH 22387
2 58964                          -00040S88 +0005L1E9 +000360OM     09

# Worst residual: 0.72 km
# MJD 60357.500000 (2024 Feb 17 12:00)
2024-030B = NORAD 58964 = Falcon 9-300 Stage 2
1 58964U 24030B   24048.49919926 -002358CN +004B4BWB +001XIL9EH 22381
2 58964                          -0002YU2C +00035WK1 +00025CF0     05

# Worst residual: 1.44 km
# MJD 60358.500000 (2024 Feb 18 12:00)
2024-030B = NORAD 58964 = Falcon 9-300 Stage 2
1 58964U 24030B   24049.49919926 -002PBU46 +004VSJQK +002D0SXPH 22384
2 58964                          -00026XEL +0001PHFP +0001H0LB     05

# Worst residual: 5.64 km
# MJD 60359.500000 (2024 Feb 19 12:00)
2024-030B = NORAD 58964 = Falcon 9-300 Stage 2
1 58964U 24030B   24050.49919926 -00359KAF +0055MFP9 +002NBTJYH 22386
2 58964                          -0001I0G7 +0000LT63 +0000XD5T     07

# Worst residual: 155.31 km
# MJD 60360.500000 (2024 Feb 20 12:00)
2024-030B = NORAD 58964 = Falcon 9-300 Stage 2
1 58964U 24030B   24051.49919926 -003F44ZB +0056QN63 +002T7F5WH 22384
2 58964                          -0000R33R -0000BQ4I +0000FVSA     06

# Worst residual: 2722.34 km
# MJD 60361.500000 (2024 Feb 21 12:00)
2024-030B = NORAD 58964 = Falcon 9-300 Stage 2
1 58964U 24030B   24052.49919926 -003FSLZH +0050NP78 +002V2MTZH 22387
2 58964                          +0001L5IO -0000VHZN -000033OV     08

# Worst residual: 12.40 km
# MJD 60362.500000 (2024 Feb 22 12:00)
2024-030B = NORAD 58964 = Falcon 9-300 Stage 2
1 58964U 24030B   24053.49919926 -0046PK59 +004AX7JF +00186UCWH 22381
2 58964                          -0003Z0Z7 -0003RZZU -0006YQX5     01

# Worst residual: 2.80 km
# MJD 60363.500000 (2024 Feb 23 12:00)
2024-030B = NORAD 58964 = Falcon 9-300 Stage 2
1 58964U 24030B   24054.49919926 -0050B7D7 +0039ZD3Q -000FLVDHH 22387
2 58964                          -0002TO7I -0004QOQ8 -0006UQKA     04

# Worst residual: 1.17 km
# MJD 60364.500000 (2024 Feb 24 12:00)
2024-030B = NORAD 58964 = Falcon 9-300 Stage 2
1 58964U 24030B   24055.49919926 -005J2OA4 +0021VPP4 -0021EEE2H 22387
2 58964                          -0001IS4U -0005EJBJ -0006H0GN     03

# Worst residual: 0.62 km
# MJD 60365.500000 (2024 Feb 25 12:00)
2024-030B = NORAD 58964 = Falcon 9-300 Stage 2
1 58964U 24030B   24056.49919926 -005R142K +000PPHUJ -003IRVQSH 22380
2 58964                          -0000CYMT -0005OT55 -0005UWDQ     07

# Worst residual: 0.40 km
# MJD 60366.500000 (2024 Feb 26 12:00)
2024-030B = NORAD 58964 = Falcon 9-300 Stage 2
1 58964U 24030B   24057.49919926 -005Q34Q3 -000NLWJB -004UG8KCH 22384
2 58964                          +0000J5DV -0005OUZK -00056FFD     07

# Worst residual: 0.18 km
# MJD 60367.500000 (2024 Feb 27 12:00)
2024-030B = NORAD 58964 = Falcon 9-300 Stage 2
1 58964U 24030B   24058.49919926 -005IKXVH -00206AIK -0060E0V8H 22385
2 58964                          +00016103 -0005J81Y -0004JHFO     05

# Worst residual: 0.20 km
# MJD 60368.500000 (2024 Feb 28 12:00)
2024-030B = NORAD 58964 = Falcon 9-300 Stage 2
1 58964U 24030B   24059.49919926 -0056H16W -003B1CVF -00715OKGH 22384
2 58964                          +0001LWG5 -0005B1ZQ -0003ZFC3     04

# Worst residual: 0.30 km
# MJD 60369.500000 (2024 Feb 29 12:00)
2024-030B = NORAD 58964 = Falcon 9-300 Stage 2
1 58964U 24030B   24060.49919926 -004R6DYG -004JTG7W -007XGY1YH 22380
2 58964                          +0001WWAF -0005228G -0003IB7M     04

# Worst residual: 0.44 km
# MJD 60370.500000 (2024 Mar  1 12:00)
2024-030B = NORAD 58964 = Falcon 9-300 Stage 2
1 58964U 24030B   24061.49919926 -0049NZ3S -005QFEC9 -008PZQ97H 22386
2 58964                          +00024KV6 -0004T1VU -00033RAD     09

# Worst residual: 0.60 km
# MJD 60371.500000 (2024 Mar  2 12:00)
2024-030B = NORAD 58964 = Falcon 9-300 Stage 2
1 58964U 24030B   24062.49919926 -003QLJXI -006UWRVS -009FA7PYH 22388
2 58964                          +0002A02I -0004KDDJ -0002RBI9     05

# Worst residual: 0.72 km
# MJD 60372.500000 (2024 Mar  3 12:00)
2024-030B = NORAD 58964 = Falcon 9-300 Stage 2
1 58964U 24030B   24063.49919926 -0036FHOI -007XD2SX -00A1SY0TH 22383
2 58964                          +0002DUF2 -0004C5CT -0002GLWN     01

# Worst residual: 0.76 km
# MJD 60373.500000 (2024 Mar  4 12:00)
2024-030B = NORAD 58964 = Falcon 9-300 Stage 2
1 58964U 24030B   24064.49919926 -002LHFBF -008XWGP9 -00ALXFTQH 22384
2 58964                          +0002GJGE -00044F53 -00027B6T     09

# Worst residual: 0.65 km
# MJD 60374.500000 (2024 Mar  5 12:00)
2024-030B = NORAD 58964 = Falcon 9-300 Stage 2
1 58964U 24030B   24065.49919926 -001ZZZUA -009WN809 -00B3YRX2H 22388
2 58964                          +0002ID3S -0003X6QT -0001Z67V     04

# Worst residual: 0.86 km
# MJD 60375.500000 (2024 Mar  6 12:00)
2024-030B = NORAD 58964 = Falcon 9-300 Stage 2
1 58964U 24030B   24066.49919926 -001E5VU9 -00ATPKVB -00BK61YSH 22389
2 58964                          +0002JI1Y -0003QFQD -0001RZMW     03

# Worst residual: 0.80 km
# MJD 60376.500000 (2024 Mar  7 12:00)
2024-030B = NORAD 58964 = Falcon 9-300 Stage 2
1 58964U 24030B   24067.49919926 -000S4EJ9 -00BP7NCV -00BYQT5VH 22383
2 58964                          +0002K38J -0003K5M7 -0001LLP3     08

# Worst residual: 0.50 km
# MJD 60377.500000 (2024 Mar  8 12:00)
2024-030B = NORAD 58964 = Falcon 9-300 Stage 2
1 58964U 24030B   24068.49919926 -0005ZST3 -00CJ9FRS -00CBVDEHH 22386
2 58964                          +0002K8PB -0003EC0L -0001FW2Q     02

# Worst residual: 0.38 km
# MJD 60378.500000 (2024 Mar  9 12:00)
2024-030B = NORAD 58964 = Falcon 9-300 Stage 2
1 58964U 24030B   24069.49919926 +000G4LKT -00DBYVF4 -00CNP671H 22381
2 58964                          +0002K24P -00038YLV -0001ARJM     06

